OBJECT_NAME,OBJECT_ID,EPOCH,MEAN_MOTION,ECCENTRICITY,INCLINATION,RA_OF_ASC_NODE,ARG_OF_PERICENTER,MEAN_ANOMALY,EPHEMERIS_TYPE,CLASSIFICATION_TYPE,NORAD_CAT_ID,ELEMENT_SET_NO,REV_AT_EPOCH,BSTAR,MEAN_MOTION_DOT,MEAN_MOTION_DDOT
CUBEBUG-2 (LO-74),2013-066AA,2026-06-26T13:47:56.921568,14.93834576,.00574718,97.8903,126.5929,358.0477,2.0509,0,U,39440,999,67839,.38862221E-3,.4199E-4,0
FUNCUBE-1 (AO-73),2013-066AE,2026-06-26T11:15:52.506144,15.09592366,.00365873,97.8271,149.1091,169.4285,190.7721,0,U,39444,999,68106,.46910259E-3,.759E-4,0
UWE-3,2013-066AG,2026-06-25T20:06:32.092416,14.97092153,.00468075,97.8708,132.9703,291.8607,67.7640,0,U,39446,999,67887,.38106409E-3,.4431E-4,0
UNISAT-6,2014-033C,2026-06-26T09:52:34.599648,14.88288091,.00457335,97.7883,329.9615,39.6182,320.8362,0,U,40012,999,64753,.27763551E-3,.2559E-4,0
DUCHIFAT-1,2014-033M,2026-06-26T14:38:02.171040,15.66536146,.0001317,98.0448,238.1065,100.0937,260.0470,0,U,40021,999,65722,.10572E-2,.111371E-2,0
QB50P1,2014-033R,2026-06-26T05:52:29.444736,15.18390211,.0008742,98.0964,189.0261,183.1826,176.9352,0,U,40025,999,65440,.4834E-3,.9878E-4,0
LILACSAT-2,2015-049K,2026-06-26T18:03:49.819680,15.51748827,.0006419,97.4638,214.9588,202.9560,157.1406,0,U,40908,999,59723,.29262E-3,.17374E-3,0
FOX-1A (AO-85),2015-058D,2026-06-26T14:36:36.038016,14.91006682,.0131014,64.7749,249.7037,52.9293,308.3713,0,U,40967,999,11497,.19593E-3,.2109E-4,0
CAS-2T & KS-1Q,2016-066G,2026-06-26T10:51:06.598944,14.44722998,.0342902,98.3822,253.0826,101.4662,262.5241,0,U,41847,999,50613,.2333609E-3,.162E-4,0
RADFXSAT (FOX-1B),2017-073E,2026-06-25T14:36:06.350976,15.12826697,.01486298,97.4699,43.6511,299.9037,58.7499,0,U,43017,999,46666,.35687408E-3,.8156E-4,0
DIWATA-2B,2018-084H,2026-06-26T16:56:47.847840,15.00493099,.0013043,98.1205,14.3297,140.2716,219.9465,0,U,43678,999,41764,.21902E-3,.2698E-4,0
ES'HAIL 2,2018-090A,2026-06-26T17:48:33.812064,1.00270519,.0002132,0.0090,302.7911,185.1403,79.8583,0,U,43700,999,2777,0,.156E-5,0
FOX-1CLIFF (AO-95),2018-099N,2026-06-26T17:05:04.607232,15.26902666,.0007136,97.4386,237.9235,319.9595,40.1117,0,U,43770,999,41467,.43041E-3,.11312E-3,0
ITASAT,2018-099AE,2026-06-26T16:54:35.731008,15.19167716,.0011181,97.4027,229.0263,324.7706,35.2789,0,U,43786,999,41435,.33E-3,.6883E-4,0
JY1SAT (JO-97),2018-099AX,2026-06-26T14:54:02.436192,15.33939843,.00050658,97.4134,240.4887,220.3437,139.7430,0,U,43803,999,41507,.51012159E-3,.16693E-3,0
UWE-4,2018-111E,2026-06-26T17:27:19.800000,15.46698886,.0004426,97.5846,106.5606,294.0658,66.0127,0,U,43880,999,41225,.6498E-3,.32472E-3,0
TIANYAN 01,2019-093C,2026-06-26T12:51:32.046048,14.86531583,.00148993,97.7532,249.5400,59.0762,301.1916,0,U,44881,999,35280,.68243509E-4,.552E-5,0
RS-44 & BREEZE-KM R/B,2019-096E,2026-06-26T16:47:30.712992,12.79749029,.0218469,82.5225,333.3830,122.0146,240.2387,0,U,44909,999,30356,.17228E-4,.17E-6,0
SALSAT,2020-068K,2026-06-26T11:58:12.031968,15.29924136,.00078098,97.8850,181.1309,268.2261,91.8084,0,U,46495,999,31678,.27078782E-3,.7768E-4,0
XW-3 (CAS-9),2021-131B,2026-06-26T15:13:35.090688,14.41366113,.00053653,98.4982,269.9730,74.5279,285.6502,0,U,50466,999,23647,.20039425E-3,.605E-5,0
GREENCUBE (IO-117),2022-080E,2026-06-25T17:51:47.627136,6.42583224,.00089751,70.1444,295.2691,287.7502,72.2178,0,U,53109,999,9261,0,-.3E-7,0
UMKA 1 (RS40S),2023-091G,2026-06-26T13:38:18.135744,15.20921220,.00143007,97.5053,236.2294,88.7504,271.5370,0,U,57172,999,16543,.30257304E-3,.6642E-4,0
CUBESX-HSE 3 (RS42S),2023-091N,2026-06-26T14:00:19.657440,15.31441165,.00115475,97.5094,243.2899,65.3701,294.8742,0,U,57178,999,16586,.44266799E-3,.13397E-3,0
MONITOR-3 (RS58S),2023-091Q,2026-06-26T13:31:18.924672,15.28022165,.00127647,97.5086,241.0785,71.8012,288.4616,0,U,57180,999,16572,.38592722E-3,.10502E-3,0
MONITOR-4 (RS57S),2023-091S,2026-06-26T14:34:42.079008,15.28107703,.00127346,97.5080,241.0947,71.8590,288.4035,0,U,57182,999,16573,.3833923E-3,.10459E-3,0
MONITOR-2 (RS39S),2023-091U,2026-06-26T14:25:56.039520,15.18992701,.00127127,97.5073,235.8233,82.6971,277.5708,0,U,57184,999,16538,.23742005E-3,.4908E-4,0
SVYATOBOR 1 (RS60S),2023-091X,2026-06-26T13:30:56.165184,15.26766844,.00105264,97.5092,241.4322,66.2529,293.9813,0,U,57187,999,16574,.33580157E-3,.8777E-4,0
VIZARD-METEO (RS38S),2023-091Z,2026-06-26T14:13:43.195584,15.36312684,.00075211,97.5095,247.2673,48.8055,311.3836,0,U,57189,999,16613,.45471695E-3,.16045E-3,0
POLYTECH-UNIVERSE 3 (RS46S),2023-091AB,2026-06-26T13:28:26.865120,15.19198452,.0017079,97.5049,235.2879,97.1970,263.1206,0,U,57191,999,16537,.26546138E-3,.5538E-4,0
UTMN 2 (RS27S),2023-091AP,2026-06-26T14:18:17.323776,15.32270931,.00086471,97.5090,244.9481,55.2376,304.9678,0,U,57203,999,16598,.43209105E-3,.13407E-3,0
